{
  "type": "FeatureCollection",
  "features": [
    {
      "type": "Feature",
      "properties": {
        "nome": "Conjunto Flores",
        "distribuidora": "Amazonas Energia",
        "estado": "AM",
        "conjunto": "FLORES",
        "subestacao": "SE Flores",
        "municipio": "Manaus",
        "dec": 7.68,
        "dec_limite": 6.5,
        "fec": 3.68,
        "fec_limite": 3.2,
        "perdas_tecnicas": 3.79,
        "perdas_tecnicas_limite": 3.03,
        "perdas_nao_tecnicas": 1.76,
        "perdas_nao_tecnicas_limite": 1.6
      },
      "geometry": {
        "type": "Polygon",
        "coordinates": [
          [
            [-60.112, -3.008],
            [-60.012, -3.008],
            [-60.012, -2.958],
            [-60.112, -2.958],
            [-60.112, -3.008]
          ]
        ]
      }
    },
    {
      "type": "Feature",
      "properties": {
        "nome": "Conjunto Iranduba Norte",
        "distribuidora": "Amazonas Energia",
        "estado": "AM",
        "conjunto": "IRANDUBA",
        "subestacao": "SE Iranduba",
        "municipio": "Iranduba",
        "dec": 2.91,
        "dec_limite": 6.5,
        "fec": 1.42,
        "fec_limite": 3.2,
        "perdas_tecnicas": 1.24,
        "perdas_tecnicas_limite": 3.03,
        "perdas_nao_tecnicas": 0.58,
        "perdas_nao_tecnicas_limite": 1.6
      },
      "geometry": {
        "type": "Polygon",
        "coordinates": [
          [
            [-60.170, -3.090],
            [-60.050, -3.090],
            [-60.050, -3.045],
            [-60.170, -3.045],
            [-60.170, -3.090]
          ]
        ]
      }
    }
  ]
}
