{
  "type": "FeatureCollection",
  "features": [
    {
      "type": "Feature",
      "properties": {
        "nome": "Manaus"
      },
      "geometry": {
        "type": "Polygon",
        "coordinates": [
          [
            [-60.157, -3.035],
            [-59.948, -3.035],
            [-59.948, -2.945],
            [-60.157, -2.945],
            [-60.157, -3.035]
          ]
        ]
      }
    },
    {
      "type": "Feature",
      "properties": {
        "nome": "Iranduba"
      },
      "geometry": {
        "type": "Polygon",
        "coordinates": [
          [
            [-60.210, -3.115],
            [-60.004, -3.115],
            [-60.004, -3.035],
            [-60.210, -3.035],
            [-60.210, -3.115]
          ]
        ]
      }
    }
  ]
}
